{
  "type": "FeatureCollection",
  "features": [
    {
      "type": "Feature",
      "id": "exercise-boundary",
      "geometry": {
        "type": "Polygon",
        "coordinates": [
          [
            [
              -0.022483009093113453,
              -0.019785048001939837
            ],
            [
              0.022483009093113453,
              -0.019785048001939837
            ],
            [
              0.022483009093113453,
              0.019785048001939837
            ],
            [
              -0.022483009093113453,
              0.019785048001939837
            ],
            [
              -0.022483009093113453,
              -0.019785048001939837
            ]
          ]
        ]
      },
      "properties": {
        "label": "Authored fictional exercise boundary",
        "color": "#64d7be",
        "kind": "boundary",
        "id": "exercise-boundary",
        "data_origin": "SYNTHETIC_EXERCISE"
      }
    },
    {
      "type": "Feature",
      "id": "exercise-corridor",
      "geometry": {
        "type": "Polygon",
        "coordinates": [
          [
            [
              -0.020684368365664375,
              -0.01438912581959261
            ],
            [
              0.018885727638215298,
              -0.01438912581959261
            ],
            [
              0.018885727638215298,
              0.016187766547041686
            ],
            [
              -0.020684368365664375,
              0.016187766547041686
            ],
            [
              -0.020684368365664375,
              -0.01438912581959261
            ]
          ]
        ]
      },
      "properties": {
        "label": "Authored display corridor; no movement feasibility inference",
        "color": "#9caac6",
        "kind": "corridor",
        "id": "exercise-corridor",
        "data_origin": "SYNTHETIC_EXERCISE"
      }
    },
    {
      "type": "Feature",
      "id": "demo-unit-01-authored-track",
      "geometry": {
        "type": "LineString",
        "coordinates": [
          [
            -0.01708708691076622,
            -0.010791844364694455
          ],
          [
            -0.010791844364694455,
            -0.008093883273520843
          ],
          [
            -0.002697961091173614,
            -0.007194562909796305
          ],
          [
            0.00449660181862269,
            -0.0035972814548981525
          ],
          [
            0.013489805455868071,
            0.005395922182347228
          ]
        ]
      },
      "properties": {
        "label": "DEMO UNIT 01 — preset path",
        "color": "#50d6b0",
        "asset_id": "demo-unit-01",
        "kind": "track",
        "id": "demo-unit-01-authored-track",
        "data_origin": "SYNTHETIC_EXERCISE"
      }
    },
    {
      "type": "Feature",
      "id": "demo-unit-01-uncertainty",
      "geometry": {
        "type": "Polygon",
        "coordinates": [
          [
            [
              0.014036971851691313,
              0.007042739573039859
            ],
            [
              0.014112489942116507,
              0.007039029607178881
            ],
            [
              0.014187280752045077,
              0.007027935438595433
            ],
            [
              0.014260624005089288,
              0.00700956391019819
            ],
            [
              0.014331813365625818,
              0.006984091949849354
            ],
            [
              0.014400163241194022,
              0.006951764866452602
            ],
            [
              0.014465015385126245,
              0.006912893987494191
            ],
            [
              0.014525745235823131,
              0.006867853660789015
            ],
            [
              0.014581767931623317,
              0.006817077649306449
            ],
            [
              0.01463254394334097,
              0.006761054953795756
            ],
            [
              0.014677584270226772,
              0.006700325103441496
            ],
            [
              0.014716455149312448,
              0.006635472959902472
            ],
            [
              0.014748782232785187,
              0.006567123084774166
            ],
            [
              0.01477425419316165,
              0.006495933724719117
            ],
            [
              0.014792625721541717,
              0.006422590472191662
            ],
            [
              0.01480371989006719,
              0.006347799662807803
            ],
            [
              0.014807429855833653,
              0.006272281572947064
            ],
            [
              0.014803719889845923,
              0.006196763483097222
            ],
            [
              0.014792625721107691,
              0.006121972673745633
            ],
            [
              0.01477425419253154,
              0.0060486294212705825
            ],
            [
              0.014748782231983209,
              0.005977440061286057
            ],
            [
              0.01471645514836942,
              0.005909090186243686
            ],
            [
              0.014677584269178937,
              0.005844238042802704
            ],
            [
              0.014632543942228592,
              0.005783508192554825
            ],
            [
              0.014581767930489148,
              0.005727485497154765
            ],
            [
              0.014525745234710754,
              0.00567670948578283
            ],
            [
              0.014465015384078407,
              0.0056316691591840355
            ],
            [
              0.014400163240250998,
              0.005592798280323667
            ],
            [
              0.014331813364823838,
              0.00556047119701285
            ],
            [
              0.014260624004459179,
              0.005534999236734537
            ],
            [
              0.014187280751611048,
              0.005516627708389697
            ],
            [
              0.01411248994189524,
              0.005505533539838522
            ],
            [
              0.014036971851691313,
              0.0055018235739884395
            ],
            [
              0.013961453761487386,
              0.005505533539838522
            ],
            [
              0.013886662951771583,
              0.005516627708389697
            ],
            [
              0.01381331969892345,
              0.005534999236734537
            ],
            [
              0.013742130338558789,
              0.00556047119701285
            ],
            [
              0.013673780463131634,
              0.005592798280323667
            ],
            [
              0.01360892831930422,
              0.0056316691591840355
            ],
            [
              0.013548198468671876,
              0.005676709485782829
            ],
            [
              0.013492175772893482,
              0.005727485497154765
            ],
            [
              0.013441399761154039,
              0.005783508192554823
            ],
            [
              0.013396359434203694,
              0.005844238042802702
            ],
            [
              0.013357488555013208,
              0.005909090186243686
            ],
            [
              0.01332516147139942,
              0.005977440061286057
            ],
            [
              0.01329968951085109,
              0.0060486294212705825
            ],
            [
              0.01328131798227494,
              0.006121972673745632
            ],
            [
              0.013270223813536704,
              0.006196763483097223
            ],
            [
              0.013266513847548978,
              0.006272281572947064
            ],
            [
              0.01327022381331544,
              0.006347799662807803
            ],
            [
              0.01328131798184091,
              0.006422590472191662
            ],
            [
              0.013299689510220978,
              0.006495933724719117
            ],
            [
              0.01332516147059744,
              0.006567123084774166
            ],
            [
              0.01335748855407018,
              0.006635472959902472
            ],
            [
              0.013396359433155857,
              0.006700325103441496
            ],
            [
              0.013441399760041661,
              0.006761054953795756
            ],
            [
              0.013492175771759311,
              0.006817077649306449
            ],
            [
              0.013548198467559497,
              0.006867853660789015
            ],
            [
              0.013608928318256384,
              0.006912893987494191
            ],
            [
              0.013673780462188605,
              0.006951764866452602
            ],
            [
              0.01374213033775681,
              0.006984091949849354
            ],
            [
              0.013813319698293339,
              0.00700956391019819
            ],
            [
              0.013886662951337553,
              0.007027935438595433
            ],
            [
              0.01396145376126612,
              0.007039029607178881
            ],
            [
              0.014036971851691313,
              0.007042739573039859
            ]
          ]
        ]
      },
      "properties": {
        "label": "Nominal 95% observation-time circle under stated model",
        "color": "#50d6b0",
        "asset_id": "demo-unit-01",
        "kind": "uncertainty",
        "id": "demo-unit-01-uncertainty",
        "data_origin": "SYNTHETIC_EXERCISE"
      }
    },
    {
      "type": "Feature",
      "id": "demo-unit-01",
      "geometry": {
        "type": "Point",
        "coordinates": [
          0.014036971851691313,
          0.006272281573514149
        ]
      },
      "properties": {
        "id": "demo-unit-01",
        "label": "DEMO UNIT 01",
        "kind": "asset",
        "color": "#50d6b0",
        "fault": "none",
        "position": [
          0.014036971851691313,
          0.006272281573514149
        ],
        "observed_at": "2026-09-08T12:20:00.000Z",
        "age_seconds": 0,
        "current_position_status": "CURRENT_SYNTHETIC_OBSERVATION",
        "latest_error_at_observation_m": 114.88108546406804,
        "nominal_radius_m": 85.67113907382857,
        "received_reports": 121,
        "valid_reports": 121,
        "missing_reports": 0,
        "coverage_count": 117,
        "empirical_coverage": 0.9669421487603306,
        "rmse_m": 48.91454200513003,
        "assumption_status": "SIMULATED_ZERO_MEAN_NOISE",
        "probability_data_true": null,
        "probability_deception": null,
        "asset_id": "demo-unit-01",
        "data_origin": "SYNTHETIC_EXERCISE"
      }
    },
    {
      "type": "Feature",
      "id": "demo-vehicle-02-authored-track",
      "geometry": {
        "type": "LineString",
        "coordinates": [
          [
            -0.015288446183317147,
            0.009892524000969918
          ],
          [
            -0.006295242546071766,
            0.010791844364694455
          ],
          [
            0.0008993203637245381,
            0.005395922182347228
          ],
          [
            0.007194562909796305,
            0.007194562909796305
          ],
          [
            0.015288446183317147,
            0.011691164728418994
          ]
        ]
      },
      "properties": {
        "label": "DEMO VEHICLE 02 — preset path",
        "color": "#fab85e",
        "asset_id": "demo-vehicle-02",
        "kind": "track",
        "id": "demo-vehicle-02-authored-track",
        "data_origin": "SYNTHETIC_EXERCISE"
      }
    },
    {
      "type": "Feature",
      "id": "demo-vehicle-02-uncertainty",
      "geometry": {
        "type": "Polygon",
        "coordinates": [
          [
            [
              0.016848033797534537,
              0.012354726840555422
            ],
            [
              0.01692355188914444,
              0.012351016874689827
            ],
            [
              0.01699834270024361,
              0.012339922706092719
            ],
            [
              0.017071685954430448,
              0.012321551177673284
            ],
            [
              0.017142875316068232,
              0.012296079217294583
            ],
            [
              0.017211225192683616,
              0.012263752133861444
            ],
            [
              0.017276077337597142,
              0.012224881254861517
            ],
            [
              0.01733680718919873,
              0.012179840928111295
            ],
            [
              0.0173928298858175,
              0.01212906491658188
            ],
            [
              0.01744360589825949,
              0.012073042221024339
            ],
            [
              0.017488646225768668,
              0.012012312370625037
            ],
            [
              0.01752751710537153,
              0.011947460227044494
            ],
            [
              0.017559844189251574,
              0.0118791103518798
            ],
            [
              0.01758531614992325,
              0.011807920991794887
            ],
            [
              0.0176036876784857,
              0.011734577739245243
            ],
            [
              0.01761478184708136,
              0.011659786929847715
            ],
            [
              0.017618491812807724,
              0.011584268839982363
            ],
            [
              0.017614781846672704,
              0.011508750750137138
            ],
            [
              0.017603687677684096,
              0.01143395994079921
            ],
            [
              0.0175853161487595,
              0.011360616688346353
            ],
            [
              0.017559844187770398,
              0.01128942732839169
            ],
            [
              0.017527517103629854,
              0.011221077453385709
            ],
            [
              0.017488646223833417,
              0.01115622530998624
            ],
            [
              0.017443605896205038,
              0.011095495459783408
            ],
            [
              0.017392829883722805,
              0.011039472764430196
            ],
            [
              0.01733680718714428,
              0.010988696753105109
            ],
            [
              0.017276077335661895,
              0.010943656426551361
            ],
            [
              0.01721122519094194,
              0.010904785547732507
            ],
            [
              0.017142875314587056,
              0.010872458464458081
            ],
            [
              0.017071685953266698,
              0.01084698650420963
            ],
            [
              0.016998342699442004,
              0.010828614975886981
            ],
            [
              0.016923551888735785,
              0.010817520807349471
            ],
            [
              0.016848033797534537,
              0.010813810841504002
            ],
            [
              0.01677251570633329,
              0.010817520807349471
            ],
            [
              0.016697724895627073,
              0.010828614975886981
            ],
            [
              0.01662438164180238,
              0.01084698650420963
            ],
            [
              0.016553192280482017,
              0.010872458464458081
            ],
            [
              0.016484842404127134,
              0.010904785547732507
            ],
            [
              0.01641999025940718,
              0.010943656426551361
            ],
            [
              0.016359260407924795,
              0.010988696753105109
            ],
            [
              0.01630323771134627,
              0.011039472764430196
            ],
            [
              0.016252461698864035,
              0.011095495459783408
            ],
            [
              0.01620742137123566,
              0.01115622530998624
            ],
            [
              0.016168550491439223,
              0.011221077453385709
            ],
            [
              0.016136223407298676,
              0.01128942732839169
            ],
            [
              0.016110751446309572,
              0.01136061668834635
            ],
            [
              0.016092379917384977,
              0.01143395994079921
            ],
            [
              0.01608128574839637,
              0.011508750750137138
            ],
            [
              0.01607757578226135,
              0.011584268839982363
            ],
            [
              0.016081285747987714,
              0.011659786929847715
            ],
            [
              0.016092379916583372,
              0.011734577739245243
            ],
            [
              0.016110751445145823,
              0.011807920991794884
            ],
            [
              0.016136223405817503,
              0.0118791103518798
            ],
            [
              0.016168550489697547,
              0.011947460227044494
            ],
            [
              0.01620742136930041,
              0.012012312370625033
            ],
            [
              0.01625246169680959,
              0.012073042221024339
            ],
            [
              0.016303237709251572,
              0.01212906491658188
            ],
            [
              0.016359260405870348,
              0.012179840928111295
            ],
            [
              0.016419990257471935,
              0.012224881254861517
            ],
            [
              0.016484842402385458,
              0.012263752133861444
            ],
            [
              0.016553192279000845,
              0.012296079217294583
            ],
            [
              0.016624381640638626,
              0.012321551177673284
            ],
            [
              0.016697724894825468,
              0.012339922706092719
            ],
            [
              0.016772515705924636,
              0.012351016874689827
            ],
            [
              0.016848033797534537,
              0.012354726840555422
            ]
          ]
        ]
      },
      "properties": {
        "label": "Nominal 95% observation-time circle under stated model",
        "color": "#fab85e",
        "asset_id": "demo-vehicle-02",
        "kind": "uncertainty",
        "id": "demo-vehicle-02-uncertainty",
        "data_origin": "SYNTHETIC_EXERCISE"
      }
    },
    {
      "type": "Feature",
      "id": "demo-vehicle-02",
      "geometry": {
        "type": "Point",
        "coordinates": [
          0.016848033797534537,
          0.011584268841029713
        ]
      },
      "properties": {
        "id": "demo-vehicle-02",
        "label": "DEMO VEHICLE 02",
        "kind": "asset",
        "color": "#fab85e",
        "fault": "bias after sample 40",
        "position": [
          0.016848033797534537,
          0.011584268841029713
        ],
        "observed_at": "2026-09-08T12:20:00.000Z",
        "age_seconds": 0,
        "current_position_status": "CURRENT_SYNTHETIC_OBSERVATION",
        "latest_error_at_observation_m": 173.82534266165214,
        "nominal_radius_m": 85.67113907382857,
        "received_reports": 121,
        "valid_reports": 121,
        "missing_reports": 0,
        "coverage_count": 39,
        "empirical_coverage": 0.32231404958677684,
        "rmse_m": 127.25295121297687,
        "assumption_status": "DECLARED_BIAS_VIOLATES_ZERO_MEAN_MODEL",
        "probability_data_true": null,
        "probability_deception": null,
        "asset_id": "demo-vehicle-02",
        "data_origin": "SYNTHETIC_EXERCISE"
      }
    },
    {
      "type": "Feature",
      "id": "demo-sensor-03-authored-track",
      "geometry": {
        "type": "LineString",
        "coordinates": [
          [
            0.010791844364694455,
            -0.012590485092143533
          ],
          [
            0.007194562909796305,
            -0.00449660181862269
          ],
          [
            0.0008993203637245381,
            0.0008993203637245381
          ],
          [
            -0.005395922182347228,
            0.007194562909796305
          ],
          [
            -0.012590485092143533,
            0.012590485092143533
          ]
        ]
      },
      "properties": {
        "label": "DEMO SENSOR 03 — preset path",
        "color": "#8cbcff",
        "asset_id": "demo-sensor-03",
        "kind": "track",
        "id": "demo-sensor-03-authored-track",
        "data_origin": "SYNTHETIC_EXERCISE"
      }
    },
    {
      "type": "Feature",
      "id": "demo-sensor-03-uncertainty",
      "geometry": {
        "type": "Polygon",
        "coordinates": [
          [
            [
              -0.012705068347217095,
              0.012960552052508812
            ],
            [
              -0.012629550255430841,
              0.012956842086642691
            ],
            [
              -0.01255475944415733,
              0.012945747918044022
            ],
            [
              -0.012481416189800124,
              0.012927376389622056
            ],
            [
              -0.012410226827997872,
              0.012901904429239951
            ],
            [
              -0.012341876951225733,
              0.012869577345802661
            ],
            [
              -0.01227702480616488,
              0.012830706466797999
            ],
            [
              -0.012216294954426955,
              0.012785666140042638
            ],
            [
              -0.012160272257684228,
              0.012734890128507882
            ],
            [
              -0.012109496245131905,
              0.012678867432944997
            ],
            [
              -0.01206445591752704,
              0.012618137582540554
            ],
            [
              -0.012025585037843966,
              0.01255328543895528
            ],
            [
              -0.011993257953899817,
              0.012484935563786437
            ],
            [
              -0.01196778599318056,
              0.012413746203698115
            ],
            [
              -0.011949414464587279,
              0.01234040295114594
            ],
            [
              -0.011938320295977559,
              0.012265612141746856
            ],
            [
              -0.011934610330253741,
              0.012190094051880979
            ],
            [
              -0.011938320296407587,
              0.012114575962036278
            ],
            [
              -0.011949414465430805,
              0.01203978515269991
            ],
            [
              -0.011967785994405173,
              0.011966441900249581
            ],
            [
              -0.011993257955458452,
              0.011895252540298324
            ],
            [
              -0.012025585039676727,
              0.011826902665296493
            ],
            [
              -0.012064455919563496,
              0.011762050521901761
            ],
            [
              -0.012109496247293794,
              0.011701320671704067
            ],
            [
              -0.012160272259888472,
              0.011645297976356198
            ],
            [
              -0.012216294956588845,
              0.011594521965036455
            ],
            [
              -0.012277024808201337,
              0.011549481638487846
            ],
            [
              -0.012341876953058495,
              0.011510610759673724
            ],
            [
              -0.012410226829556507,
              0.011478283676403446
            ],
            [
              -0.012481416191024736,
              0.011452811716158405
            ],
            [
              -0.012554759445000858,
              0.011434440187838285
            ],
            [
              -0.012629550255860869,
              0.011423346019302331
            ],
            [
              -0.012705068347217095,
              0.011419636053457392
            ],
            [
              -0.012780586438573324,
              0.011423346019302331
            ],
            [
              -0.012855377249433335,
              0.011434440187838285
            ],
            [
              -0.012928720503409454,
              0.011452811716158405
            ],
            [
              -0.012999909864877686,
              0.011478283676403446
            ],
            [
              -0.013068259741375696,
              0.011510610759673724
            ],
            [
              -0.013133111886232856,
              0.011549481638487843
            ],
            [
              -0.013193841737845345,
              0.011594521965036452
            ],
            [
              -0.01324986443454572,
              0.011645297976356198
            ],
            [
              -0.013300640447140395,
              0.011701320671704067
            ],
            [
              -0.013345680774870694,
              0.011762050521901761
            ],
            [
              -0.013384551654757465,
              0.011826902665296493
            ],
            [
              -0.013416878738975737,
              0.011895252540298324
            ],
            [
              -0.013442350700029018,
              0.011966441900249581
            ],
            [
              -0.013460722229003387,
              0.01203978515269991
            ],
            [
              -0.013471816398026606,
              0.012114575962036278
            ],
            [
              -0.013475526364180451,
              0.012190094051880979
            ],
            [
              -0.013471816398456632,
              0.012265612141746856
            ],
            [
              -0.013460722229846914,
              0.01234040295114594
            ],
            [
              -0.01344235070125363,
              0.012413746203698115
            ],
            [
              -0.013416878740534375,
              0.012484935563786437
            ],
            [
              -0.013384551656590226,
              0.01255328543895528
            ],
            [
              -0.013345680776907152,
              0.012618137582540554
            ],
            [
              -0.013300640449302287,
              0.012678867432944997
            ],
            [
              -0.013249864436749964,
              0.012734890128507882
            ],
            [
              -0.013193841740007239,
              0.012785666140042638
            ],
            [
              -0.013133111888269312,
              0.012830706466797999
            ],
            [
              -0.013068259743208459,
              0.012869577345802661
            ],
            [
              -0.01299990986643632,
              0.012901904429239951
            ],
            [
              -0.012928720504634067,
              0.012927376389622056
            ],
            [
              -0.012855377250276863,
              0.012945747918044022
            ],
            [
              -0.01278058643900335,
              0.012956842086642691
            ],
            [
              -0.012705068347217095,
              0.012960552052508812
            ]
          ]
        ]
      },
      "properties": {
        "label": "Nominal 95% observation-time circle under stated model",
        "color": "#8cbcff",
        "asset_id": "demo-sensor-03",
        "kind": "uncertainty",
        "id": "demo-sensor-03-uncertainty",
        "data_origin": "SYNTHETIC_EXERCISE"
      }
    },
    {
      "type": "Feature",
      "id": "demo-sensor-03",
      "geometry": {
        "type": "Point",
        "coordinates": [
          -0.012705068347217095,
          0.012190094052983103
        ]
      },
      "properties": {
        "id": "demo-sensor-03",
        "label": "DEMO SENSOR 03",
        "kind": "asset",
        "color": "#8cbcff",
        "fault": "missing every eleventh report",
        "position": [
          -0.012705068347217095,
          0.012190094052983103
        ],
        "observed_at": "2026-09-08T12:20:00.000Z",
        "age_seconds": 0,
        "current_position_status": "CURRENT_SYNTHETIC_OBSERVATION",
        "latest_error_at_observation_m": 46.30875367317969,
        "nominal_radius_m": 85.67113907382857,
        "received_reports": 121,
        "valid_reports": 110,
        "missing_reports": 11,
        "coverage_count": 107,
        "empirical_coverage": 0.9727272727272728,
        "rmse_m": 46.33440949921785,
        "assumption_status": "SIMULATED_ZERO_MEAN_NOISE",
        "probability_data_true": null,
        "probability_deception": null,
        "asset_id": "demo-sensor-03",
        "data_origin": "SYNTHETIC_EXERCISE"
      }
    },
    {
      "type": "Feature",
      "id": "demo-air-04-authored-track",
      "geometry": {
        "type": "LineString",
        "coordinates": [
          [
            -0.016187766547041686,
            0.01438912581959261
          ],
          [
            -0.00449660181862269,
            0.015288446183317147
          ],
          [
            0.01438912581959261,
            0.011691164728418994
          ],
          [
            0.01708708691076622,
            -0.002697961091173614
          ],
          [
            0.0017986407274490762,
            -0.012590485092143533
          ]
        ]
      },
      "properties": {
        "label": "DEMO AIR 04 — preset path",
        "color": "#ce9eff",
        "asset_id": "demo-air-04",
        "kind": "track",
        "id": "demo-air-04-authored-track",
        "data_origin": "SYNTHETIC_EXERCISE"
      }
    },
    {
      "type": "Feature",
      "id": "demo-air-04-uncertainty",
      "geometry": {
        "type": "Polygon",
        "coordinates": [
          [
            [
              0.005609067204213192,
              -0.00927360084725123
            ],
            [
              0.005684585295058447,
              -0.009277310813098037
            ],
            [
              0.00575937610541132,
              -0.00928840498163951
            ],
            [
              0.005832719358887964,
              -0.009306776509968593
            ],
            [
              0.00590390871986823,
              -0.0093322484702257
            ],
            [
              0.005972258595893643,
              -0.009364575553510678
            ],
            [
              0.006037110740297422,
              -0.00940344643234157
            ],
            [
              0.006097840591479604,
              -0.00944848675890838
            ],
            [
              0.006153863287776564,
              -0.00949926277024705
            ],
            [
              0.006204639299998498,
              -0.009555285465613846
            ],
            [
              0.006249679627390427,
              -0.009616015315829736
            ],
            [
              0.006288550506976774,
              -0.009680867459241243
            ],
            [
              0.006320877590935983,
              -0.009749217334257775
            ],
            [
              0.006346349551774745,
              -0.009820406694221098
            ],
            [
              0.006364721080582055,
              -0.00989374994668039
            ],
            [
              0.00637581524948825,
              -0.009968540756022277
            ],
            [
              0.0063795252155772805,
              -0.010044058845868842
            ],
            [
              0.006375815249842572,
              -0.010119576935732857
            ],
            [
              0.006364721081277082,
              -0.01019436774512642
            ],
            [
              0.006346349552783769,
              -0.01026771099766963
            ],
            [
              0.006320877592220225,
              -0.010338900357745887
            ],
            [
              0.006288550508486883,
              -0.010407250232900029
            ],
            [
              0.0062496796290683705,
              -0.010472102376468532
            ],
            [
              0.006204639301779793,
              -0.010532832226854775
            ],
            [
              0.006153863289592755,
              -0.010588854922398734
            ],
            [
              0.006097840593260899,
              -0.010639630933914566
            ],
            [
              0.006037110741975367,
              -0.010684671260651724
            ],
            [
              0.005972258597403753,
              -0.010723542139639613
            ],
            [
              0.005903908721152472,
              -0.010755869223062202
            ],
            [
              0.0058327193598969864,
              -0.010781341183432245
            ],
            [
              0.005759376106106346,
              -0.010799712711845245
            ],
            [
              0.005684585295412769,
              -0.010810806880438393
            ],
            [
              0.005609067204213192,
              -0.01081451684630265
            ],
            [
              0.005533549113013615,
              -0.010810806880438393
            ],
            [
              0.005458758302320037,
              -0.010799712711845245
            ],
            [
              0.005385415048529397,
              -0.010781341183432245
            ],
            [
              0.005314225687273912,
              -0.010755869223062205
            ],
            [
              0.005245875811022632,
              -0.010723542139639613
            ],
            [
              0.0051810236664510175,
              -0.010684671260651724
            ],
            [
              0.005120293815165485,
              -0.010639630933914566
            ],
            [
              0.005064271118833629,
              -0.010588854922398734
            ],
            [
              0.005013495106646591,
              -0.010532832226854777
            ],
            [
              0.004968454779358014,
              -0.010472102376468532
            ],
            [
              0.0049295838999395,
              -0.010407250232900029
            ],
            [
              0.004897256816206158,
              -0.010338900357745887
            ],
            [
              0.0048717848556426155,
              -0.010267710997669632
            ],
            [
              0.0048534133271493024,
              -0.010194367745126422
            ],
            [
              0.004842319158583813,
              -0.010119576935732857
            ],
            [
              0.004838609192849104,
              -0.010044058845868842
            ],
            [
              0.004842319158938134,
              -0.009968540756022277
            ],
            [
              0.004853413327844329,
              -0.00989374994668039
            ],
            [
              0.004871784856651639,
              -0.009820406694221098
            ],
            [
              0.0048972568174904,
              -0.009749217334257775
            ],
            [
              0.00492958390144961,
              -0.009680867459241243
            ],
            [
              0.004968454781035957,
              -0.009616015315829736
            ],
            [
              0.005013495108427886,
              -0.009555285465613846
            ],
            [
              0.00506427112064982,
              -0.00949926277024705
            ],
            [
              0.00512029381694678,
              -0.00944848675890838
            ],
            [
              0.005181023668128961,
              -0.00940344643234157
            ],
            [
              0.005245875812532741,
              -0.009364575553510678
            ],
            [
              0.005314225688558154,
              -0.0093322484702257
            ],
            [
              0.0053854150495384195,
              -0.009306776509968593
            ],
            [
              0.005458758303015065,
              -0.00928840498163951
            ],
            [
              0.005533549113367937,
              -0.009277310813098037
            ],
            [
              0.005609067204213192,
              -0.00927360084725123
            ]
          ]
        ]
      },
      "properties": {
        "label": "Nominal 95% observation-time circle under stated model",
        "color": "#ce9eff",
        "asset_id": "demo-air-04",
        "kind": "uncertainty",
        "id": "demo-air-04-uncertainty",
        "data_origin": "SYNTHETIC_EXERCISE"
      }
    },
    {
      "type": "Feature",
      "id": "demo-air-04",
      "geometry": {
        "type": "Point",
        "coordinates": [
          0.005609067204213192,
          -0.010044058846776938
        ]
      },
      "properties": {
        "id": "demo-air-04",
        "label": "DEMO AIR 04",
        "kind": "asset",
        "color": "#ce9eff",
        "fault": "reports delayed 70 seconds",
        "position": [
          0.005609067204213192,
          -0.010044058846776938
        ],
        "observed_at": "2026-09-08T12:18:50.000Z",
        "age_seconds": 70,
        "current_position_status": "LAST_OBSERVED_POSITION",
        "latest_error_at_observation_m": 37.84452992935109,
        "nominal_radius_m": 85.67113907382857,
        "received_reports": 114,
        "valid_reports": 114,
        "missing_reports": 0,
        "coverage_count": 109,
        "empirical_coverage": 0.956140350877193,
        "rmse_m": 51.062172964401434,
        "assumption_status": "SIMULATED_ZERO_MEAN_NOISE",
        "probability_data_true": null,
        "probability_deception": null,
        "asset_id": "demo-air-04",
        "data_origin": "SYNTHETIC_EXERCISE"
      }
    }
  ]
}
